[{"OBJECT_NAME":"YAOGAN-30 07B","OBJECT_ID":"2020-021B","EPOCH":"2026-03-09T12:49:57.763776","MEAN_MOTION":15.021739,"ECCENTRICITY":0.00015807,"INCLINATION":34.9937,"RA_OF_ASC_NODE":97.6546,"ARG_OF_PERICENTER":52.3271,"MEAN_ANOMALY":307.7581,"EPHEMERIS_TYPE":0,"CLASSIFICATION_TYPE":"U","NORAD_CAT_ID":45461,"ELEMENT_SET_NO":999,"REV_AT_EPOCH":32549,"BSTAR":0.00028705108,"MEAN_MOTION_DOT":3.828e-5,"MEAN_MOTION_DDOT":0},{"OBJECT_NAME":"STARLINK-5860","OBJECT_ID":"2023-088E","EPOCH":"2026-03-09T12:53:25.027008","MEAN_MOTION":15.02736345,"ECCENTRICITY":0.00025465,"INCLINATION":43.0045,"RA_OF_ASC_NODE":108.5724,"ARG_OF_PERICENTER":284.5925,"MEAN_ANOMALY":75.4635,"EPHEMERIS_TYPE":0,"CLASSIFICATION_TYPE":"U","NORAD_CAT_ID":57052,"ELEMENT_SET_NO":999,"REV_AT_EPOCH":15034,"BSTAR":0.0019008825,"MEAN_MOTION_DOT":0.00025706,"MEAN_MOTION_DDOT":0}]
