YAOGAN-30 07B           
1 45461U 20021B   26068.53469634  .00003828  00000+0  28705-3 0  9992
2 45461  34.9937  97.6546 0001580  52.3271 307.7581 15.02173900325490
STARLINK-5860           
1 57052U 23088E   26068.53709522  .00025706  00000+0  19009-2 0  9995
2 57052  43.0045 108.5724 0002546 284.5925  75.4635 15.02736345150345
